GSAT0101 (GALILEO-PFM)  
1 37846U 11060A   24280.00122265 -.00000085  00000+0  00000+0 0  9992
2 37846  57.1244 358.5401 0000445 310.0853  49.9652  1.70475886 80562
GSAT0102 (GALILEO-FM2)  
1 37847U 11060B   24278.16809556 -.00000092  00000+0  00000+0 0  9990
2 37847  57.1248 358.5897 0001696 308.3059  52.2065  1.70475469 80666
GSAT0103 (GALILEO-FM3)  
1 38857U 12055A   24280.04069060  .00000058  00000+0  00000+0 0  9996
2 38857  55.4557 118.5574 0002005 266.2042  93.8553  1.70473724 74452
GSAT0201 (GALILEO 5)    
1 40128U 14050A   24277.96363192 -.00000050  00000+0  00000+0 0  9990
2 40128  49.5478 298.6849 1613849 155.5076 213.1118  1.85519659 66795
GSAT0202 (GALILEO 6)    
1 40129U 14050B   24279.29950053 -.00000041  00000+0  00000+0 0  9997
2 40129  49.5630 297.7095 1613061 156.3533 211.9899  1.85520356 68950
GSAT0203 (GALILEO 7)    
1 40544U 15017A   24279.78019066 -.00000086  00000+0  00000+0 0  9995
2 40544  56.9192 358.4650 0004922 245.5844 114.4184  1.70476374 58646
GSAT0204 (GALILEO 8)    
1 40545U 15017B   24280.03469253 -.00000085  00000+0  00000+0 0  9992
2 40545  56.9255 358.4740 0004823 232.7433 127.2671  1.70475938 21692
GSAT0205 (GALILEO 9)    
1 40889U 15045A   24279.21618446  .00000010  00000+0  00000+0 0  9999
2 40889  55.1729 238.7299 0003967  14.7716 345.2026  1.70473176 56448
GSAT0206 (GALILEO 10)   
1 40890U 15045B   24280.02343052  .00000014  00000+0  00000+0 0  9994
2 40890  55.1718 238.7030 0002363 351.8945   8.0689  1.70473114 56484
GSAT0209 (GALILEO 12)   
1 41174U 15079A   24280.19332710  .00000058  00000+0  00000+0 0  9992
2 41174  55.4744 118.2634 0002402 355.9751   4.1042  1.70474213 54229
GSAT0208 (GALILEO 11)   
1 41175U 15079B   24278.06684490  .00000055  00000+0  00000+0 0  9998
2 41175  55.4726 118.3195 0001950   8.4595 351.6359  1.70474074 54604
GSAT0211 (GALILEO 14)   
1 41549U 16030A   24279.94913751  .00000014  00000+0  00000+0 0  9999
2 41549  55.3205 238.7282 0003506 327.5933  32.3519  1.70473223 52114
GSAT0210 (GALILEO 13)   
1 41550U 16030B   24280.20724862  .00000016  00000+0  00000+0 0  9997
2 41550  55.3197 238.7195 0003413 246.1524 113.7801  1.70473621 52118
GSAT0207 (GALILEO 15)   
1 41859U 16069A   24278.72714591  .00000056  00000+0  00000+0 0  9997
2 41859  55.1392 118.2784 0002044 326.9920  33.0841  1.70474189 48828
GSAT0212 (GALILEO 16)   
1 41860U 16069B   24279.75448155  .00000057  00000+0  00000+0 0  9994
2 41860  55.1373 118.2460 0002312  31.3112 328.7861  1.70474332 49094
GSAT0213 (GALILEO 17)   
1 41861U 16069C   24280.12286208  .00000057  00000+0  00000+0 0  9997
2 41861  55.1398 118.2428 0001757 280.3757  79.6861  1.70474724 48961
GSAT0214 (GALILEO 18)   
1 41862U 16069D   24280.26821149  .00000057  00000+0  00000+0 0  9992
2 41862  55.1389 118.2323 0000849 292.2905  67.7814  1.70474363 49094
GSAT0215 (GALILEO 19)   
1 43055U 17079A   24279.58429099  .00000012  00000+0  00000+0 0  9992
2 43055  55.2976 238.5586 0002918 277.3910  82.5405  1.70473916 42423
GSAT0216 (GALILEO 20)   
1 43056U 17079B   24279.87590939  .00000014  00000+0  00000+0 0  9999
2 43056  55.2976 238.5504 0004384 283.0022  76.9153  1.70474050 42440
GSAT0217 (GALILEO 21)   
1 43057U 17079C   24279.50983445  .00000012  00000+0  00000+0 0  9996
2 43057  55.2958 238.5592 0003870 297.4460  62.4789  1.70474004 42424
GSAT0218 (GALILEO 22)   
1 43058U 17079D   24279.14330501  .00000010  00000+0  00000+0 0  9994
2 43058  55.2964 238.5667 0004847 278.7622  81.1451  1.70474002 42446
GSAT0221 (GALILEO 25)   
1 43564U 18060A   24279.04457424 -.00000088  00000+0  00000+0 0  9996
2 43564  57.2995 358.5131 0004586 261.2188  98.7822  1.70476338 38600
GSAT0222 (GALILEO 26)   
1 43565U 18060B   24280.43642204 -.00000083  00000+0  00000+0 0  9999
2 43565  57.3030 358.4776 0004903 235.9659 124.0427  1.70475939 38655
GSAT0219 (GALILEO 23)   
1 43566U 18060C   24278.89838022 -.00000089  00000+0  00000+0 0  9998
2 43566  57.3022 358.5208 0004413 268.6480  91.3541  1.70476202 38612
GSAT0220 (GALILEO 24)   
1 43567U 18060D   24280.29225275 -.00000084  00000+0  00000+0 0  9991
2 43567  57.3018 358.4841 0003986 261.9599  98.0499  1.70476289 38623
GSAT0223 (GALILEO 27)   
1 49809U 21116A   24278.97132678 -.00000088  00000+0  00000+0 0  9992
2 49809  57.2924 358.4131 0003894 211.0996 148.7320  1.70476516 17604
GSAT0224 (GALILEO 28)   
1 49810U 21116B   24279.32387472 -.00000087  00000+0  00000+0 0  9997
2 49810  57.2931 358.4020 0003156 207.6133 121.1064  1.70476578 17637
GSAT0225 (GALILEO 29)   
1 59598U 24079A   24280.27063205  .00000056  00000+0  00000+0 0  9998
2 59598  54.7561 118.4001 0002387 159.3920  21.2148  1.70474569  2766
GSAT0227 (GALILEO 30)   
1 59600U 24079C   24280.15981037  .00000056  00000+0  00000+0 0  9991
2 59600  54.7513 118.4033 0003622 109.9259 250.1948  1.70474454  2811
GSAT0232 (GALILEO 32)   
1 61182U 24167A   24280.21941923  .00000016  00000+0  00000+0 0  9990
2 61182  55.4079 238.3008 0017121 273.1755  86.5981  1.73177071   311
GSAT0226 (GALILEO 31)   
1 61183U 24167B   24278.53704925  .00000006  00000+0  00000+0 0  9991
2 61183  55.4090 238.3638 0032528  98.1835 216.1601  1.71379623   287
